[{"OBJECT_NAME":"QIANFAN-125","OBJECT_ID":"2026-075S","EPOCH":"2026-04-20T10:41:20.053536","MEAN_MOTION":14.2339552,"ECCENTRICITY":0.00146367,"INCLINATION":88.9908,"RA_OF_ASC_NODE":327.2259,"ARG_OF_PERICENTER":173.0224,"MEAN_ANOMALY":187.1175,"EPHEMERIS_TYPE":0,"CLASSIFICATION_TYPE":"U","NORAD_CAT_ID":68652,"ELEMENT_SET_NO":999,"REV_AT_EPOCH":183,"BSTAR":9.0821844e-5,"MEAN_MOTION_DOT":2.21e-6,"MEAN_MOTION_DDOT":0},{"OBJECT_NAME":"QIANFAN-126","OBJECT_ID":"2026-075T","EPOCH":"2026-04-20T12:20:32.251488","MEAN_MOTION":14.2495199,"ECCENTRICITY":0.00146168,"INCLINATION":88.9905,"RA_OF_ASC_NODE":327.2177,"ARG_OF_PERICENTER":174.1855,"MEAN_ANOMALY":185.951,"EPHEMERIS_TYPE":0,"CLASSIFICATION_TYPE":"U","NORAD_CAT_ID":68653,"ELEMENT_SET_NO":999,"REV_AT_EPOCH":184,"BSTAR":0.0039705224,"MEAN_MOTION_DOT":9.311e-5,"MEAN_MOTION_DDOT":0},{"OBJECT_NAME":"CZ-8 R/B","OBJECT_ID":"2026-075U","EPOCH":"2026-04-20T12:45:32.734368","MEAN_MOTION":14.40035198,"ECCENTRICITY":0.00736331,"INCLINATION":88.9896,"RA_OF_ASC_NODE":327.1797,"ARG_OF_PERICENTER":77.4999,"MEAN_ANOMALY":283.4427,"EPHEMERIS_TYPE":0,"CLASSIFICATION_TYPE":"U","NORAD_CAT_ID":68654,"ELEMENT_SET_NO":999,"REV_AT_EPOCH":185,"BSTAR":4.0686025e-5,"MEAN_MOTION_DOT":1.49e-6,"MEAN_MOTION_DDOT":0},{"OBJECT_NAME":"HULIANWANG DIGUI-164","OBJECT_ID":"2026-076A","EPOCH":"2026-04-20T09:10:35.270688","MEAN_MOTION":13.78166093,"ECCENTRICITY":0.00013317,"INCLINATION":86.4947,"RA_OF_ASC_NODE":64.1022,"ARG_OF_PERICENTER":98.3522,"MEAN_ANOMALY":261.7794,"EPHEMERIS_TYPE":0,"CLASSIFICATION_TYPE":"U","NORAD_CAT_ID":68656,"ELEMENT_SET_NO":999,"REV_AT_EPOCH":160,"BSTAR":-0.00091161988,"MEAN_MOTION_DOT":-9.0e-6,"MEAN_MOTION_DDOT":0},{"OBJECT_NAME":"HULIANWANG DIGUI-165","OBJECT_ID":"2026-076B","EPOCH":"2026-04-20T09:07:36.919488","MEAN_MOTION":13.78683947,"ECCENTRICITY":0.00014629,"INCLINATION":86.4973,"RA_OF_ASC_NODE":64.1046,"ARG_OF_PERICENTER":99.0045,"MEAN_ANOMALY":261.1285,"EPHEMERIS_TYPE":0,"CLASSIFICATION_TYPE":"U","NORAD_CAT_ID":68657,"ELEMENT_SET_NO":999,"REV_AT_EPOCH":160,"BSTAR":0.00014630429,"MEAN_MOTION_DOT":1.65e-6,"MEAN_MOTION_DDOT":0},{"OBJECT_NAME":"HULIANWANG DIGUI-166","OBJECT_ID":"2026-076C","EPOCH":"2026-04-20T09:04:19.816032","MEAN_MOTION":13.79111745,"ECCENTRICITY":0.00013461,"INCLINATION":86.4912,"RA_OF_ASC_NODE":64.0909,"ARG_OF_PERICENTER":94.6693,"MEAN_ANOMALY":265.4626,"EPHEMERIS_TYPE":0,"CLASSIFICATION_TYPE":"U","NORAD_CAT_ID":68658,"ELEMENT_SET_NO":999,"REV_AT_EPOCH":160,"BSTAR":-0.00050936764,"MEAN_MOTION_DOT":-5.03e-6,"MEAN_MOTION_DDOT":0},{"OBJECT_NAME":"HULIANWANG DIGUI-167","OBJECT_ID":"2026-076D","EPOCH":"2026-04-20T08:59:59.308800","MEAN_MOTION":13.7975982,"ECCENTRICITY":0.00013923,"INCLINATION":86.4969,"RA_OF_ASC_NODE":64.1021,"ARG_OF_PERICENTER":99.1312,"MEAN_ANOMALY":261.0011,"EPHEMERIS_TYPE":0,"CLASSIFICATION_TYPE":"U","NORAD_CAT_ID":68659,"ELEMENT_SET_NO":999,"REV_AT_EPOCH":160,"BSTAR":-6.532161e-5,"MEAN_MOTION_DOT":-5.0e-7,"MEAN_MOTION_DDOT":0},{"OBJECT_NAME":"HULIANWANG DIGUI-168","OBJECT_ID":"2026-076E","EPOCH":"2026-04-20T08:56:05.010144","MEAN_MOTION":13.80317283,"ECCENTRICITY":0.00014118,"INCLINATION":86.4949,"RA_OF_ASC_NODE":64.0963,"ARG_OF_PERICENTER":95.4319,"MEAN_ANOMALY":264.7008,"EPHEMERIS_TYPE":0,"CLASSIFICATION_TYPE":"U","NORAD_CAT_ID":68660,"ELEMENT_SET_NO":999,"REV_AT_EPOCH":159,"BSTAR":-0.00062239783,"MEAN_MOTION_DOT":-6.32e-6,"MEAN_MOTION_DDOT":0},{"OBJECT_NAME":"CZ-6A R/B","OBJECT_ID":"2026-076F","EPOCH":"2026-04-20T13:56:12.361632","MEAN_MOTION":14.09391715,"ECCENTRICITY":0.01069922,"INCLINATION":86.507,"RA_OF_ASC_NODE":63.8356,"ARG_OF_PERICENTER":74.5811,"MEAN_ANOMALY":286.7159,"EPHEMERIS_TYPE":0,"CLASSIFICATION_TYPE":"U","NORAD_CAT_ID":68661,"ELEMENT_SET_NO":999,"REV_AT_EPOCH":166,"BSTAR":-3.527331e-6,"MEAN_MOTION_DOT":1.3e-7,"MEAN_MOTION_DDOT":0},{"OBJECT_NAME":"GUOWANG TEST OBJECT A","OBJECT_ID":"2026-078A","EPOCH":"2026-04-20T14:07:56.186400","MEAN_MOTION":13.68814812,"ECCENTRICITY":0.00080916,"INCLINATION":86.4976,"RA_OF_ASC_NODE":302.5928,"ARG_OF_PERICENTER":256.441,"MEAN_ANOMALY":103.5849,"EPHEMERIS_TYPE":0,"CLASSIFICATION_TYPE":"U","NORAD_CAT_ID":68687,"ELEMENT_SET_NO":999,"REV_AT_EPOCH":123,"BSTAR":0.00027380019,"MEAN_MOTION_DOT":2.52e-6,"MEAN_MOTION_DDOT":0},{"OBJECT_NAME":"GUOWANG TEST OBJECT B","OBJECT_ID":"2026-078B","EPOCH":"2026-04-20T14:29:39.043968","MEAN_MOTION":14.21575539,"ECCENTRICITY":0.02516946,"INCLINATION":86.586,"RA_OF_ASC_NODE":302.4184,"ARG_OF_PERICENTER":356.0276,"MEAN_ANOMALY":3.8908,"EPHEMERIS_TYPE":0,"CLASSIFICATION_TYPE":"U","NORAD_CAT_ID":68688,"ELEMENT_SET_NO":999,"REV_AT_EPOCH":128,"BSTAR":8.2044454e-5,"MEAN_MOTION_DOT":2.69e-6,"MEAN_MOTION_DDOT":0},{"OBJECT_NAME":"CYGNUS NG-24","OBJECT_ID":"2026-079A","EPOCH":"2026-04-20T12:32:07.793952","MEAN_MOTION":15.48851306,"ECCENTRICITY":0.00066857,"INCLINATION":51.6326,"RA_OF_ASC_NODE":225.5007,"ARG_OF_PERICENTER":329.7855,"MEAN_ANOMALY":30.2747,"EPHEMERIS_TYPE":0,"CLASSIFICATION_TYPE":"U","NORAD_CAT_ID":68689,"ELEMENT_SET_NO":999,"REV_AT_EPOCH":138,"BSTAR":0.0001745173,"MEAN_MOTION_DOT":9.13e-5,"MEAN_MOTION_DDOT":0},{"OBJECT_NAME":"GUOWANG TEST OBJECT C","OBJECT_ID":"2026-078C","EPOCH":"2026-04-20T15:03:53.866656","MEAN_MOTION":14.617703,"ECCENTRICITY":0.04437226,"INCLINATION":86.6401,"RA_OF_ASC_NODE":302.2568,"ARG_OF_PERICENTER":355.3218,"MEAN_ANOMALY":4.3902,"EPHEMERIS_TYPE":0,"CLASSIFICATION_TYPE":"U","NORAD_CAT_ID":68690,"ELEMENT_SET_NO":999,"REV_AT_EPOCH":132,"BSTAR":0.00026216374,"MEAN_MOTION_DOT":5.734e-5,"MEAN_MOTION_DDOT":0},{"OBJECT_NAME":"JILIN GAOFEN OBJECT A","OBJECT_ID":"2026-080A","EPOCH":"2026-04-19T17:13:37.278912","MEAN_MOTION":15.08316877,"ECCENTRICITY":0.00105101,"INCLINATION":97.6642,"RA_OF_ASC_NODE":185.3455,"ARG_OF_PERICENTER":261.5316,"MEAN_ANOMALY":98.4721,"EPHEMERIS_TYPE":0,"CLASSIFICATION_TYPE":"U","NORAD_CAT_ID":68691,"ELEMENT_SET_NO":999,"REV_AT_EPOCH":84,"BSTAR":1.7305389e-5,"MEAN_MOTION_DOT":2.04e-6,"MEAN_MOTION_DDOT":0},{"OBJECT_NAME":"JILIN GAOFEN OBJECT B","OBJECT_ID":"2026-080B","EPOCH":"2026-04-16T22:20:16.196064","MEAN_MOTION":15.09268839,"ECCENTRICITY":0.00140201,"INCLINATION":97.662,"RA_OF_ASC_NODE":182.5721,"ARG_OF_PERICENTER":270.2297,"MEAN_ANOMALY":89.7325,"EPHEMERIS_TYPE":0,"CLASSIFICATION_TYPE":"U","NORAD_CAT_ID":68692,"ELEMENT_SET_NO":999,"REV_AT_EPOCH":42,"BSTAR":0.00014838883,"MEAN_MOTION_DOT":2.302e-5,"MEAN_MOTION_DDOT":0},{"OBJECT_NAME":"JILIN GAOFEN OBJECT C","OBJECT_ID":"2026-080C","EPOCH":"2026-04-19T01:15:18.825408","MEAN_MOTION":15.09281899,"ECCENTRICITY":0.00140837,"INCLINATION":97.6618,"RA_OF_ASC_NODE":184.6919,"ARG_OF_PERICENTER":261.8747,"MEAN_ANOMALY":98.0884,"EPHEMERIS_TYPE":0,"CLASSIFICATION_TYPE":"U","NORAD_CAT_ID":68693,"ELEMENT_SET_NO":999,"REV_AT_EPOCH":74,"BSTAR":2.1875792e-5,"MEAN_MOTION_DOT":2.84e-6,"MEAN_MOTION_DDOT":0}]
