QIANFAN-125
1 68652U 26075S   26110.44537099  .00000221  00000+0  90822-4 0  9997
2 68652  88.9908 327.2259 0014636 173.0224 187.1175 14.23395520  1836
QIANFAN-126
1 68653U 26075T   26110.51426217  .00009311  00000+0  39705-2 0  9995
2 68653  88.9905 327.2177 0014616 174.1855 185.9510 14.24951990  1843
HULIANWANG DIGUI-164
1 68656U 26076A   26110.38235267 -.00000900  00000+0 -91162-3 0  9990
2 68656  86.4947  64.1022 0001331  98.3522 261.7794 13.78166093  1600
HULIANWANG DIGUI-165
1 68657U 26076B   26110.38028842  .00000165  00000+0  14630-3 0  9996
2 68657  86.4973  64.1046 0001462  99.0045 261.1285 13.78683947  1600
HULIANWANG DIGUI-166
1 68658U 26076C   26110.37800713 -.00000503  00000+0 -50937-3 0  9999
2 68658  86.4912  64.0909 0001346  94.6693 265.4626 13.79111745  1601
HULIANWANG DIGUI-167
1 68659U 26076D   26110.37499200 -.00000050  00000+0 -65322-4 0  9997
2 68659  86.4969  64.1021 0001392  99.1312 261.0011 13.79759820  1601
HULIANWANG DIGUI-168
1 68660U 26076E   26110.37228021 -.00000632  00000+0 -62240-3 0  9991
2 68660  86.4949  64.0963 0001411  95.4319 264.7008 13.80317283  1592
GUOWANG TEST OBJECT A
1 68687U 26078A   26110.58884475  .00000252  00000+0  27380-3 0  9998
2 68687  86.4976 302.5928 0008091 256.4410 103.5849 13.68814812  1234
CYGNUS NG-24
1 68689U 26079A   26110.52231243  .00009130  00000+0  17452-3 0  9997
2 68689  51.6326 225.5007 0006685 329.7855  30.2747 15.48851306  1383
JILIN GAOFEN OBJECT A
1 68691U 26080A   26109.71779258  .00000204  00000+0  17305-4 0  9995
2 68691  97.6642 185.3455 0010510 261.5316  98.4721 15.08316877   847
JILIN GAOFEN OBJECT B
1 68692U 26080B   26106.93074301  .00002302  00000+0  14839-3 0  9993
2 68692  97.6620 182.5721 0014020 270.2297  89.7325 15.09268839   426
JILIN GAOFEN OBJECT C
1 68693U 26080C   26109.05230122  .00000284  00000+0  21876-4 0  9992
2 68693  97.6618 184.6919 0014083 261.8747  98.0884 15.09281899   740
CZ-8 R/B
1 68654U 26075U   26110.53162887  .00000149  00000+0  40686-4 0  9990
2 68654  88.9896 327.1797 0073633  77.4999 283.4427 14.40035198  1851
CZ-6A R/B
1 68661U 26076F   26110.58069863  .00000013  00000+0 -35273-5 0  9992
2 68661  86.5070  63.8356 0106992  74.5811 286.7159 14.09391715  1660
GUOWANG TEST OBJECT B
1 68688U 26078B   26110.60392412  .00000269  00000+0  82044-4 0  9994
2 68688  86.5860 302.4184 0251694 356.0276   3.8908 14.21575539  1280
GUOWANG TEST OBJECT C
1 68690U 26078C   26110.62770679  .00005734  00000+0  26216-3 0  9994
2 68690  86.6401 302.2568 0443722 355.3218   4.3902 14.61770300  1324
